STARLINK-5237           
1 54196U 22141AR  26067.98833749 -.00000613  00000+0 -20421-4 0  9991
2 54196  53.2195 357.1519 0001298 106.0340 254.0795 15.08834766185898
LEMUR-2-SIERRINI        
1 60579U 24149DR  26068.80891719  .00014386  00000+0  92040-3 0  9991
2 60579  97.6873 151.1225 0006580 147.8458 212.3173 15.08682764 85461
